NORAD_CAT_ID,OBJECT_NAME,OBJECT_TYPE,EPOCH,MEAN_MOTION,ECCENTRICITY,INCLINATION,RA_OF_ASC_NODE,ARG_OF_PERICENTER,MEAN_ANOMALY,BSTAR,MEAN_MOTION_DOT,MEAN_MOTION_DDOT,TLE_LINE0,TLE_LINE1,TLE_LINE2,SEMIMAJOR_AXIS,PERIOD,APOGEE,PERIGEE,DECAYED
56449.0,STARLINK-5993,PAYLOAD,2023-08-05 10:46:12,14.98334078,0.0003344,69.9999,12.9835,269.5193,90.5583,5.5972e-05,5.75e-06,0.0,0 STARLINK-5993,1 56449U 23064B   23217.44875373  .00000575  00000-0  55972-4 0  9998,2 56449  69.9999  12.9835 0003344 269.5193  90.5583 14.98334078 13717,6950.18,96.107,574.369,569.721,0.0
56449.0,STARLINK-5993,PAYLOAD,2023-08-05 20:23:00,14.98340685,0.0003281,70.0,11.9733,268.7894,91.2889,0.00012271,1.372e-05,0.0,0 STARLINK-5993,1 56449U 23064B   23217.84930603  .00001372  00000-0  12271-3 0  9990,2 56449  70.0000  11.9733 0003281 268.7894  91.2889 14.98340685 13772,6950.16,96.106,574.305,569.745,0.0
56449.0,STARLINK-5993,PAYLOAD,2023-08-06 10:48:13,14.98314592,0.0002413,70.0029,10.4618,258.9175,101.1712,0.00016106,1.829e-05,0.0,0 STARLINK-5993,1 56449U 23064B   23218.45016126  .00001829  00000-0  16106-3 0  9991,2 56449  70.0029  10.4618 0002413 258.9175 101.1712 14.98314592 13862,6950.241,96.108,573.783,570.428,0.0
56449.0,STARLINK-5993,PAYLOAD,2023-08-06 17:12:47,14.98314631,0.0002818,70.0018,9.787,261.0686,99.0154,-0.0001232,-1.562e-05,0.0,0 STARLINK-5993,1 56449U 23064B   23218.71721118 -.00001562  00000-0 -12320-3 0  9994,2 56449  70.0018   9.7870 0002818 261.0686  99.0154 14.98314631 13906,6950.24,96.108,574.064,570.147,0.0
56449.0,STARLINK-5993,PAYLOAD,2023-08-07 18:50:55,14.98330979,0.0003469,69.9999,7.0913,271.7492,88.327,-6.4014e-05,-8.57e-06,0.0,0 STARLINK-5993,1 56449U 23064B   23219.78536501 -.00000857  00000-0 -64014-4 0  9996,2 56449  69.9999   7.0913 0003469 271.7492  88.3270 14.98330979 14067,6950.19,96.107,574.466,569.644,0.0
56449.0,STARLINK-5993,PAYLOAD,2023-08-08 10:52:15,14.983289,0.0003596,69.9999,5.4075,274.823,85.2518,0.00023027,2.656e-05,0.0,0 STARLINK-5993,1 56449U 23064B   23220.45295787  .00002656  00000-0  23027-3 0  9995,2 56449  69.9999   5.4075 0003596 274.8230  85.2518 14.98328900 14166,6950.196,96.107,574.561,569.562,0.0
56449.0,STARLINK-5993,PAYLOAD,2023-08-09 15:42:40,14.98330836,0.0003573,70.0002,2.3789,270.8341,89.2408,9.0685e-06,1.5e-07,0.0,0 STARLINK-5993,1 56449U 23064B   23221.65464095  .00000015  00000-0  90685-5 0  9991,2 56449  70.0002   2.3789 0003573 270.8341  89.2408 14.98330836 14349,6950.19,96.107,574.539,569.572,0.0
56449.0,STARLINK-5993,PAYLOAD,2023-08-10 15:44:41,14.98336882,0.0003682,70.0001,359.8532,273.099,86.9747,-0.00012094,-1.536e-05,0.0,0 STARLINK-5993,1 56449U 23064B   23222.65603789 -.00001536  00000-0 -12094-3 0  9994,2 56449  70.0001 359.8532 0003682 273.0990  86.9747 14.98336882 14493,6950.172,96.107,574.596,569.478,0.0
56449.0,STARLINK-5993,PAYLOAD,2023-08-11 02:57:36,14.98424776,0.0003161,70.0001,358.6751,274.8602,85.2196,-0.0015579,-0.00018678,0.0,0 STARLINK-5993,1 56449U 23064B   23223.12334119 -.00018678  00000-0 -15579-2 0  9990,2 56449  70.0001 358.6751 0003161 274.8602  85.2196 14.98424776 14562,6949.9,96.101,573.962,569.568,0.0
56449.0,STARLINK-5993,PAYLOAD,2023-08-11 10:58:18,14.98329102,0.0003593,70.0002,357.8335,270.6785,89.3963,4.2732e-05,4.17e-06,0.0,0 STARLINK-5993,1 56449U 23064B   23223.45715575  .00000417  00000-0  42732-4 0  9998,2 56449  70.0002 357.8335 0003593 270.6785  89.3963 14.98329102 14617,6950.196,96.107,574.558,569.563,0.0
56449.0,STARLINK-5993,PAYLOAD,2023-08-11 20:35:06,14.98337726,0.000359,70.0003,356.8233,270.1658,89.909,8.4269e-05,9.13e-06,0.0,0 STARLINK-5993,1 56449U 23064B   23223.85770836  .00000913  00000-0  84269-4 0  9995,2 56449  70.0003 356.8233 0003590 270.1658  89.9090 14.98337726 14679,6950.169,96.107,574.529,569.539,0.0
56449.0,STARLINK-5993,PAYLOAD,2023-08-12 11:00:19,14.9833148,0.0003222,70.0004,355.3085,269.6787,90.4003,-4.4512e-05,-6.24e-06,0.0,0 STARLINK-5993,1 56449U 23064B   23224.45855559 -.00000624  00000-0 -44512-4 0  9996,2 56449  70.0004 355.3085 0003222 269.6787  90.4003 14.98331480 14769,6950.188,96.107,574.293,569.814,0.0
56449.0,STARLINK-5993,PAYLOAD,2023-08-12 15:48:43,14.98345384,0.0002979,70.0003,354.8035,266.5207,93.5612,-0.00022718,-2.804e-05,0.0,0 STARLINK-5993,1 56449U 23064B   23224.65883102 -.00002804  00000-0 -22718-3 0  9998,2 56449  70.0003 354.8035 0002979 266.5207  93.5612 14.98345384 14799,6950.145,96.106,574.081,569.94,0.0
56449.0,STARLINK-5993,PAYLOAD,2023-08-13 01:25:31,14.98330877,0.0003566,70.0003,353.7936,272.4385,87.6366,-1.1275e-06,-1.07e-06,0.0,0 STARLINK-5993,1 56449U 23064B   23225.05939385 -.00000107  00000-0 -11275-5 0  9990,2 56449  70.0003 353.7936 0003566 272.4385  87.6366 14.98330877 14851,6950.19,96.107,574.534,569.577,0.0
56449.0,STARLINK-5993,PAYLOAD,2023-08-14 01:27:32,14.98330779,0.0003439,70.0013,351.2707,266.7019,93.3746,-6.0183e-05,-8.11e-06,0.0,0 STARLINK-5993,1 56449U 23064B   23226.06079625 -.00000811  00000-0 -60183-4 0  9997,2 56449  70.0013 351.2707 0003439 266.7019  93.3746 14.98330779 15005,6950.19,96.107,574.446,569.665,0.0
56449.0,STARLINK-5993,PAYLOAD,2023-08-15 01:29:34,14.9829439,0.0003452,70.0009,348.7438,266.8661,93.2103,0.00059662,7.027e-05,0.0,0 STARLINK-5993,1 56449U 23064B   23227.06220349  .00007027  00000-0  59662-3 0  9992,2 56449  70.0009 348.7438 0003452 266.8661  93.2103 14.98294390 15151,6950.303,96.109,574.567,569.769,0.0
56449.0,STARLINK-5993,PAYLOAD,2023-08-15 09:30:13,14.9832818,0.0003411,70.0008,347.9024,270.6439,89.4329,7.0316e-05,7.46e-06,0.0,0 STARLINK-5993,1 56449U 23064B   23227.39599314  .00000746  00000-0  70316-4 0  9990,2 56449  70.0008 347.9024 0003411 270.6439  89.4329 14.98328180 15201,6950.199,96.107,574.434,569.693,0.0
56449.0,STARLINK-5993,PAYLOAD,2023-08-16 01:31:33,14.98333187,0.0003428,70.0006,346.2186,270.0289,90.0477,0.00022439,2.586e-05,0.0,0 STARLINK-5993,1 56449U 23064B   23228.06358498  .00002586  00000-0  22439-3 0  9997,2 56449  70.0006 346.2186 0003428 270.0289  90.0477 14.98333187 15301,6950.183,96.107,574.431,569.666,0.0
56449.0,STARLINK-5993,PAYLOAD,2023-08-16 17:32:53,14.98348912,0.000341,69.9998,344.5348,269.1717,90.9051,0.0001049,1.159e-05,0.0,0 STARLINK-5993,1 56449U 23064B   23228.73117218  .00001159  00000-0  10490-3 0  9993,2 56449  69.9998 344.5348 0003410 269.1717  90.9051 14.98348912 15405,6950.134,96.106,574.369,569.629,0.0
56449.0,STARLINK-5993,PAYLOAD,2023-08-17 11:10:23,14.98323042,0.0003483,70.0002,342.6838,268.7019,91.3741,-0.000104,-1.334e-05,0.0,0 STARLINK-5993,1 56449U 23064B   23229.46555281 -.00001334  00000-0 -10400-3 0  9998,2 56449  70.0002 342.6838 0003483 268.7019  91.3741 14.98323042 15517,6950.214,96.107,574.5,569.659,0.0
56449.0,STARLINK-5993,PAYLOAD,2023-08-18 09:36:16,14.98329253,0.0003407,70.0002,340.3272,268.4661,91.6108,-0.00013813,-1.741e-05,0.0,0 STARLINK-5993,1 56449U 23064B   23230.40019137 -.00001741  00000-0 -13813-3 0  9992,2 56449  70.0002 340.3272 0003407 268.4661  91.6108 14.98329253 15655,6950.195,96.107,574.428,569.692,0.0
56449.0,STARLINK-5993,PAYLOAD,2023-08-19 09:38:17,14.98324442,0.0003394,70.0005,337.8029,267.7066,92.3704,0.00010939,1.212e-05,0.0,0 STARLINK-5993,1 56449U 23064B   23231.40158883  .00001212  00000-0  10939-3 0  9992,2 56449  70.0005 337.8029 0003394 267.7066  92.3704 14.98324442 15807,6950.21,96.107,574.434,569.716,0.0
56449.0,STARLINK-5993,PAYLOAD,2023-08-20 12:52:34,14.983283,0.0003377,70.0006,334.9416,267.6315,92.4458,3.7283e-05,3.52e-06,0.0,0 STARLINK-5993,1 56449U 23064B   23232.53651054  .00000352  00000-0  37283-4 0  9991,2 56449  70.0006 334.9416 0003377 267.6315  92.4458 14.98328300 15975,6950.198,96.107,574.41,569.716,0.0
56449.0,STARLINK-5993,PAYLOAD,2023-08-21 12:54:35,14.98330315,0.0003082,70.0009,332.4184,266.6483,93.4324,-4.4131e-05,-6.2e-06,0.0,0 STARLINK-5993,1 56449U 23064B   23233.53791206 -.00000620  00000-0 -44131-4 0  9996,2 56449  70.0009 332.4184 0003082 266.6483  93.4324 14.98330315 16121,6950.192,96.107,574.199,569.915,0.0
56449.0,STARLINK-5993,PAYLOAD,2023-08-23 12:58:37,14.98335057,0.0003141,70.0011,327.3675,263.4736,96.6065,-2.3676e-05,-3.76e-06,0.0,0 STARLINK-5993,1 56449U 23064B   23235.54070761 -.00000376  00000-0 -23676-4 0  9994,2 56449  70.0011 327.3675 0003141 263.4736  96.6065 14.98335057 16422,6950.177,96.107,574.225,569.859,0.0
56449.0,STARLINK-5993,PAYLOAD,2023-08-24 11:24:30,14.9832726,0.0003336,70.0009,325.011,268.2194,91.8583,1.0249e-05,2.9e-07,0.0,0 STARLINK-5993,1 56449U 23064B   23236.47535050  .00000029  00000-0  10249-4 0  9999,2 56449  70.0009 325.0110 0003336 268.2194  91.8583 14.98327260 16200,6950.201,96.107,574.385,569.748,0.0
56449.0,STARLINK-5993,PAYLOAD,2023-08-25 09:50:23,14.98332052,0.0003333,70.0008,322.655,269.6137,90.4641,-3.4958e-05,-5.1e-06,0.0,0 STARLINK-5993,1 56449U 23064B   23237.40998850 -.00000510  00000-0 -34958-4 0  9994,2 56449  70.0008 322.6550 0003333 269.6137  90.4641 14.98332052 16709,6950.187,96.107,574.368,569.735,0.0
56449.0,STARLINK-5993,PAYLOAD,2023-08-25 13:02:39,14.9833254,0.0003311,70.0007,322.3182,269.3497,90.7282,-2.5562e-05,-3.98e-06,0.0,0 STARLINK-5993,1 56449U 23064B   23237.54350771 -.00000398  00000-0 -25562-4 0  9998,2 56449  70.0007 322.3182 0003311 269.3497  90.7282 14.98332540 16366,6950.185,96.107,574.351,569.749,0.0
56449.0,STARLINK-5993,PAYLOAD,2023-08-25 14:38:47,14.98332669,0.0003307,70.0007,322.15,269.3068,90.7712,-2.3304e-05,-3.71e-06,0.0,0 STARLINK-5993,1 56449U 23064B   23237.61026744 -.00000371  00000-0 -23304-4 0  9999,2 56449  70.0007 322.1500 0003307 269.3068  90.7712 14.98332669 16378,6950.185,96.107,574.348,569.751,0.0
56449.0,STARLINK-5993,PAYLOAD,2023-08-26 09:52:24,14.98325422,0.0003379,70.0003,320.1302,268.1644,91.9128,-5.3575e-06,-1.57e-06,0.0,0 STARLINK-5993,1 56449U 23064B   23238.41139065 -.00000157  00000-0 -53575-5 0  9995,2 56449  70.0003 320.1302 0003379 268.1644  91.9128 14.98325422 16854,6950.207,96.107,574.421,569.724,0.0
